CCSDS_OMM_VERS = 2.0
CREATION_DATE  = 
ORIGINATOR     = 

OBJECT_NAME    = STARLINK-36122
OBJECT_ID      = 2025-286AD
CENTER_NAME    = EARTH
REF_FRAME      = TEME
TIME_SYSTEM    = UTC
MEAN_ELEMENT_THEORY = SGP/SGP4

EPOCH          = 2025-12-20T22:00:01.999584
MEAN_MOTION    = 15.74394838
ECCENTRICITY   = .00008503
INCLINATION    = 53.1569
RA_OF_ASC_NODE = 9.3042
ARG_OF_PERICENTER = 90.2749
MEAN_ANOMALY   = 16.7808

EPHEMERIS_TYPE = 0
CLASSIFICATION_TYPE = U
NORAD_CAT_ID   = 66952
ELEMENT_SET_NO = 999
REV_AT_EPOCH   = 330
BSTAR          = -.24043955E-2
MEAN_MOTION_DOT = -.341885E-2
MEAN_MOTION_DDOT = 0

CCSDS_OMM_VERS = 2.0
CREATION_DATE  = 
ORIGINATOR     = 

OBJECT_NAME    = HULIANWANG DIGUI-114
OBJECT_ID      = 2025-287A
CENTER_NAME    = EARTH
REF_FRAME      = TEME
TIME_SYSTEM    = UTC
MEAN_ELEMENT_THEORY = SGP/SGP4

EPOCH          = 2025-12-20T09:09:14.655168
MEAN_MOTION    = 13.66161866
ECCENTRICITY   = .00096738
INCLINATION    = 86.4960
RA_OF_ASC_NODE = 343.3747
ARG_OF_PERICENTER = 185.0352
MEAN_ANOMALY   = 175.0710

EPHEMERIS_TYPE = 0
CLASSIFICATION_TYPE = U
NORAD_CAT_ID   = 66953
ELEMENT_SET_NO = 999
REV_AT_EPOCH   = 157
BSTAR          = .3033618E-5
MEAN_MOTION_DOT = .19E-6
MEAN_MOTION_DDOT = 0

CCSDS_OMM_VERS = 2.0
CREATION_DATE  = 
ORIGINATOR     = 

OBJECT_NAME    = HULIANWANG DIGUI-115
OBJECT_ID      = 2025-287B
CENTER_NAME    = EARTH
REF_FRAME      = TEME
TIME_SYSTEM    = UTC
MEAN_ELEMENT_THEORY = SGP/SGP4

EPOCH          = 2025-12-20T14:23:56.755680
MEAN_MOTION    = 13.66603826
ECCENTRICITY   = .00094984
INCLINATION    = 86.4975
RA_OF_ASC_NODE = 343.2967
ARG_OF_PERICENTER = 182.0064
MEAN_ANOMALY   = 178.1058

EPHEMERIS_TYPE = 0
CLASSIFICATION_TYPE = U
NORAD_CAT_ID   = 66954
ELEMENT_SET_NO = 999
REV_AT_EPOCH   = 160
BSTAR          = -.979328E-6
MEAN_MOTION_DOT = .16E-6
MEAN_MOTION_DDOT = 0

CCSDS_OMM_VERS = 2.0
CREATION_DATE  = 
ORIGINATOR     = 

OBJECT_NAME    = HULIANWANG DIGUI-116
OBJECT_ID      = 2025-287C
CENTER_NAME    = EARTH
REF_FRAME      = TEME
TIME_SYSTEM    = UTC
MEAN_ELEMENT_THEORY = SGP/SGP4

EPOCH          = 2025-12-20T16:07:29.631072
MEAN_MOTION    = 13.67009251
ECCENTRICITY   = .00086607
INCLINATION    = 86.4918
RA_OF_ASC_NODE = 343.2556
ARG_OF_PERICENTER = 174.2680
MEAN_ANOMALY   = 185.8579

EPHEMERIS_TYPE = 0
CLASSIFICATION_TYPE = U
NORAD_CAT_ID   = 66955
ELEMENT_SET_NO = 999
REV_AT_EPOCH   = 161
BSTAR          = .12368885E-3
MEAN_MOTION_DOT = .12E-5
MEAN_MOTION_DDOT = 0

CCSDS_OMM_VERS = 2.0
CREATION_DATE  = 
ORIGINATOR     = 

OBJECT_NAME    = HULIANWANG DIGUI-117
OBJECT_ID      = 2025-287D
CENTER_NAME    = EARTH
REF_FRAME      = TEME
TIME_SYSTEM    = UTC
MEAN_ELEMENT_THEORY = SGP/SGP4

EPOCH          = 2025-12-18T14:55:12.079776
MEAN_MOTION    = 13.67770338
ECCENTRICITY   = .00076767
INCLINATION    = 86.4971
RA_OF_ASC_NODE = 344.0126
ARG_OF_PERICENTER = 176.3616
MEAN_ANOMALY   = 183.7600

EPHEMERIS_TYPE = 0
CLASSIFICATION_TYPE = U
NORAD_CAT_ID   = 66956
ELEMENT_SET_NO = 999
REV_AT_EPOCH   = 133
BSTAR          = .10922436E-4
MEAN_MOTION_DOT = .26E-6
MEAN_MOTION_DDOT = 0

CCSDS_OMM_VERS = 2.0
CREATION_DATE  = 
ORIGINATOR     = 

OBJECT_NAME    = HULIANWANG DIGUI-118
OBJECT_ID      = 2025-287E
CENTER_NAME    = EARTH
REF_FRAME      = TEME
TIME_SYSTEM    = UTC
MEAN_ELEMENT_THEORY = SGP/SGP4

EPOCH          = 2025-12-20T16:03:25.181280
MEAN_MOTION    = 13.67845146
ECCENTRICITY   = .00078058
INCLINATION    = 86.4953
RA_OF_ASC_NODE = 343.2634
ARG_OF_PERICENTER = 167.9283
MEAN_ANOMALY   = 192.2065

EPHEMERIS_TYPE = 0
CLASSIFICATION_TYPE = U
NORAD_CAT_ID   = 66957
ELEMENT_SET_NO = 999
REV_AT_EPOCH   = 161
BSTAR          = .12125742E-3
MEAN_MOTION_DOT = .119E-5
MEAN_MOTION_DDOT = 0

CCSDS_OMM_VERS = 2.0
CREATION_DATE  = 
ORIGINATOR     = 

OBJECT_NAME    = CZ-6A R/B
OBJECT_ID      = 2025-287F
CENTER_NAME    = EARTH
REF_FRAME      = TEME
TIME_SYSTEM    = UTC
MEAN_ELEMENT_THEORY = SGP/SGP4

EPOCH          = 2025-12-20T19:24:33.776928
MEAN_MOTION    = 13.94920968
ECCENTRICITY   = .01072686
INCLINATION    = 86.5061
RA_OF_ASC_NODE = 343.0330
ARG_OF_PERICENTER = 77.8970
MEAN_ANOMALY   = 283.4198

EPHEMERIS_TYPE = 0
CLASSIFICATION_TYPE = U
NORAD_CAT_ID   = 66958
ELEMENT_SET_NO = 999
REV_AT_EPOCH   = 166
BSTAR          = .35646792E-4
MEAN_MOTION_DOT = .69E-6
MEAN_MOTION_DDOT = 0

CCSDS_OMM_VERS = 2.0
CREATION_DATE  = 
ORIGINATOR     = 

OBJECT_NAME    = STARLINK-35887
OBJECT_ID      = 2025-288A
CENTER_NAME    = EARTH
REF_FRAME      = TEME
TIME_SYSTEM    = UTC
MEAN_ELEMENT_THEORY = SGP/SGP4

EPOCH          = 2025-12-20T22:00:01.999584
MEAN_MOTION    = 15.79503508
ECCENTRICITY   = .0001754
INCLINATION    = 43.0012
RA_OF_ASC_NODE = 117.1095
ARG_OF_PERICENTER = 276.4553
MEAN_ANOMALY   = 278.6506

EPHEMERIS_TYPE = 0
CLASSIFICATION_TYPE = U
NORAD_CAT_ID   = 66959
ELEMENT_SET_NO = 999
REV_AT_EPOCH   = 314
BSTAR          = -.78312745E-2
MEAN_MOTION_DOT = -.1291789E-1
MEAN_MOTION_DDOT = 0

CCSDS_OMM_VERS = 2.0
CREATION_DATE  = 
ORIGINATOR     = 

OBJECT_NAME    = STARLINK-35879
OBJECT_ID      = 2025-288B
CENTER_NAME    = EARTH
REF_FRAME      = TEME
TIME_SYSTEM    = UTC
MEAN_ELEMENT_THEORY = SGP/SGP4

EPOCH          = 2025-12-20T22:00:01.999584
MEAN_MOTION    = 15.79503996
ECCENTRICITY   = .00016393
INCLINATION    = 43.0011
RA_OF_ASC_NODE = 117.1045
ARG_OF_PERICENTER = 275.2797
MEAN_ANOMALY   = 281.7963

EPHEMERIS_TYPE = 0
CLASSIFICATION_TYPE = U
NORAD_CAT_ID   = 66960
ELEMENT_SET_NO = 999
REV_AT_EPOCH   = 314
BSTAR          = -.78765682E-2
MEAN_MOTION_DOT = -.1298296E-1
MEAN_MOTION_DDOT = 0

CCSDS_OMM_VERS = 2.0
CREATION_DATE  = 
ORIGINATOR     = 

OBJECT_NAME    = STARLINK-35761
OBJECT_ID      = 2025-288C
CENTER_NAME    = EARTH
REF_FRAME      = TEME
TIME_SYSTEM    = UTC
MEAN_ELEMENT_THEORY = SGP/SGP4

EPOCH          = 2025-12-20T22:00:01.999584
MEAN_MOTION    = 15.79494879
ECCENTRICITY   = .00016817
INCLINATION    = 43.0011
RA_OF_ASC_NODE = 117.0994
ARG_OF_PERICENTER = 277.6827
MEAN_ANOMALY   = 281.4456

EPHEMERIS_TYPE = 0
CLASSIFICATION_TYPE = U
NORAD_CAT_ID   = 66961
ELEMENT_SET_NO = 999
REV_AT_EPOCH   = 314
BSTAR          = -.79091861E-2
MEAN_MOTION_DOT = -.1326802E-1
MEAN_MOTION_DDOT = 0

CCSDS_OMM_VERS = 2.0
CREATION_DATE  = 
ORIGINATOR     = 

OBJECT_NAME    = STARLINK-35874
OBJECT_ID      = 2025-288D
CENTER_NAME    = EARTH
REF_FRAME      = TEME
TIME_SYSTEM    = UTC
MEAN_ELEMENT_THEORY = SGP/SGP4

EPOCH          = 2025-12-20T22:00:01.999584
MEAN_MOTION    = 15.79427186
ECCENTRICITY   = .00016275
INCLINATION    = 43.0008
RA_OF_ASC_NODE = 117.0931
ARG_OF_PERICENTER = 270.0209
MEAN_ANOMALY   = 291.5409

EPHEMERIS_TYPE = 0
CLASSIFICATION_TYPE = U
NORAD_CAT_ID   = 66962
ELEMENT_SET_NO = 999
REV_AT_EPOCH   = 314
BSTAR          = -.80189524E-2
MEAN_MOTION_DOT = -.1339496E-1
MEAN_MOTION_DDOT = 0

CCSDS_OMM_VERS = 2.0
CREATION_DATE  = 
ORIGINATOR     = 

OBJECT_NAME    = STARLINK-36133
OBJECT_ID      = 2025-288E
CENTER_NAME    = EARTH
REF_FRAME      = TEME
TIME_SYSTEM    = UTC
MEAN_ELEMENT_THEORY = SGP/SGP4

EPOCH          = 2025-12-20T22:00:01.999584
MEAN_MOTION    = 15.79415336
ECCENTRICITY   = .00016182
INCLINATION    = 43.0009
RA_OF_ASC_NODE = 117.0880
ARG_OF_PERICENTER = 270.0090
MEAN_ANOMALY   = 293.6290

EPHEMERIS_TYPE = 0
CLASSIFICATION_TYPE = U
NORAD_CAT_ID   = 66963
ELEMENT_SET_NO = 999
REV_AT_EPOCH   = 314
BSTAR          = -.80897945E-2
MEAN_MOTION_DOT = -.1349406E-1
MEAN_MOTION_DDOT = 0

