STARLINK-36122          
1 66952U 25286AD  25354.91668981 -.00341885  00000+0 -24044-2 0  9994
2 66952  53.1569   9.3042 0000850  90.2749  16.7808 15.74394838  3309
HULIANWANG DIGUI-114    
1 66953U 25287A   25354.38141962  .00000019  00000+0  30336-5 0  9995
2 66953  86.4960 343.3747 0009673 185.0352 175.0710 13.66161866  1572
HULIANWANG DIGUI-115    
1 66954U 25287B   25354.59996245  .00000016  00000+0 -97933-6 0  9996
2 66954  86.4975 343.2967 0009498 182.0064 178.1058 13.66603826  1604
HULIANWANG DIGUI-116    
1 66955U 25287C   25354.67187073  .00000120  00000+0  12369-3 0  9999
2 66955  86.4918 343.2556 0008660 174.2680 185.8579 13.67009251  1610
HULIANWANG DIGUI-117    
1 66956U 25287D   25352.62166759  .00000026  00000+0  10922-4 0  9990
2 66956  86.4971 344.0126 0007676 176.3616 183.7600 13.67770338  1332
HULIANWANG DIGUI-118    
1 66957U 25287E   25354.66904145  .00000119  00000+0  12126-3 0  9996
2 66957  86.4953 343.2634 0007805 167.9283 192.2065 13.67845146  1619
CZ-6A R/B               
1 66958U 25287F   25354.80872427  .00000069  00000+0  35647-4 0  9998
2 66958  86.5061 343.0330 0107268  77.8970 283.4198 13.94920968  1669
STARLINK-35887          
1 66959U 25288A   25354.91668981 -.01291789  00000+0 -78313-2 0  9999
2 66959  43.0012 117.1095 0001754 276.4553 278.6506 15.79503508  3145
STARLINK-35879          
1 66960U 25288B   25354.91668981 -.01298296  00000+0 -78766-2 0  9993
2 66960  43.0011 117.1045 0001639 275.2797 281.7963 15.79503996  3143
STARLINK-35761          
1 66961U 25288C   25354.91668981 -.01326802  00000+0 -79092-2 0  9992
2 66961  43.0011 117.0994 0001681 277.6827 281.4456 15.79494879  3146
STARLINK-35874          
1 66962U 25288D   25354.91668981 -.01339496  00000+0 -80190-2 0  9997
2 66962  43.0008 117.0931 0001627 270.0209 291.5409 15.79427186  3142
STARLINK-36133          
1 66963U 25288E   25354.91668981 -.01349406  00000+0 -80898-2 0  9995
2 66963  43.0009 117.0880 0001618 270.0090 293.6290 15.79415336  3140
